NORAD_CAT_ID,OBJECT_NAME,OBJECT_TYPE,EPOCH,MEAN_MOTION,ECCENTRICITY,INCLINATION,RA_OF_ASC_NODE,ARG_OF_PERICENTER,MEAN_ANOMALY,BSTAR,MEAN_MOTION_DOT,MEAN_MOTION_DDOT,TLE_LINE0,TLE_LINE1,TLE_LINE2,SEMIMAJOR_AXIS,PERIOD,APOGEE,PERIGEE,DECAYED
53145.0,STARLINK-4106,PAYLOAD,2024-06-18 13:15:11,15.08842514,0.0001197,53.2176,118.4291,96.2087,263.9041,7.7318e-05,9.43e-06,0.0,0 STARLINK-4106,1 53145U 22083P   24170.55222065  .00000943  00000-0  77318-4 0  9990,2 53145  53.2176 118.4291 0001197  96.2087 263.9041 15.08842514106246,6917.873,95.437,540.566,538.91,0.0
53145.0,STARLINK-4106,PAYLOAD,2024-06-18 21:12:08,15.08826836,0.0001259,53.2175,116.9425,94.1648,265.9488,4.8661e-06,-2.1e-06,0.0,0 STARLINK-4106,1 53145U 22083P   24170.88343415 -.00000210  00000-0  48661-5 0  9997,2 53145  53.2175 116.9425 0001259  94.1648 265.9488 15.08826836106297,6917.921,95.438,540.657,538.915,0.0
53145.0,STARLINK-4106,PAYLOAD,2024-06-19 05:09:04,15.0883223,0.0001343,53.2182,115.4575,98.5532,261.5612,5.153e-05,5.32e-06,0.0,0 STARLINK-4106,1 53145U 22083P   24171.21463124  .00000532  00000-0  51530-4 0  9999,2 53145  53.2182 115.4575 0001343  98.5532 261.5612 15.08832230106970,6917.904,95.438,540.698,538.84,0.0
53145.0,STARLINK-4106,PAYLOAD,2024-06-19 13:05:59,15.08840684,0.0001347,53.2188,113.9711,96.8259,263.2886,8.4627e-05,1.059e-05,0.0,0 STARLINK-4106,1 53145U 22083P   24171.54582557  .00001059  00000-0  84627-4 0  9995,2 53145  53.2188 113.9711 0001347  96.8259 263.2886 15.08840684106392,6917.878,95.438,540.675,538.811,0.0
53145.0,STARLINK-4106,PAYLOAD,2024-06-20 03:24:28,15.08832861,0.0001512,53.2193,111.2957,91.892,268.2246,6.8323e-07,-2.77e-06,0.0,0 STARLINK-4106,1 53145U 22083P   24172.14199597 -.00000277  00000-0  68323-6 0  9999,2 53145  53.2193 111.2957 0001512  91.8920 268.2246 15.08832861107119,6917.902,95.438,540.813,538.721,0.0
53145.0,STARLINK-4106,PAYLOAD,2024-06-20 06:35:14,15.08838401,0.0001343,53.2178,110.6981,87.0838,273.0308,2.2362e-05,6.8e-07,0.0,0 STARLINK-4106,1 53145U 22083P   24172.27447155  .00000068  00000-0  22362-4 0  9997,2 53145  53.2178 110.6981 0001343  87.0838 273.0308 15.08838401106500,6917.885,95.438,540.679,538.821,0.0
53145.0,STARLINK-4106,PAYLOAD,2024-06-21 04:50:38,15.0883787,0.0001324,53.2179,106.5355,84.648,275.4663,4.8307e-05,4.81e-06,0.0,0 STARLINK-4106,1 53145U 22083P   24173.20183309  .00000481  00000-0  48307-4 0  9995,2 53145  53.2179 106.5355 0001324  84.6480 275.4663 15.08837870107279,6917.887,95.438,540.668,538.836,0.0
53145.0,STARLINK-4106,PAYLOAD,2024-06-22 04:41:25,15.08839803,0.0001417,53.218,102.0713,76.763,283.352,4.4405e-05,4.19e-06,0.0,0 STARLINK-4106,1 53145U 22083P   24174.19543396  .00000419  00000-0  44405-4 0  9996,2 53145  53.2180 102.0713 0001417  76.7630 283.3520 15.08839803106796,6917.881,95.438,540.726,538.766,0.0
53145.0,STARLINK-4106,PAYLOAD,2024-06-22 18:59:53,15.08840911,0.0001319,53.2176,99.3959,87.843,272.2713,4.4251e-05,4.16e-06,0.0,0 STARLINK-4106,1 53145U 22083P   24174.79159254  .00000416  00000-0  44251-4 0  9994,2 53145  53.2176  99.3959 0001319  87.8430 272.2713 15.08840911107517,6917.878,95.437,540.655,538.83,0.0
53145.0,STARLINK-4106,PAYLOAD,2024-06-23 01:21:25,15.08842066,0.0001318,53.2176,98.2071,88.939,271.1754,5.7858e-05,6.33e-06,0.0,0 STARLINK-4106,1 53145U 22083P   24175.05655086  .00000633  00000-0  57858-4 0  9996,2 53145  53.2176  98.2071 0001318  88.9390 271.1754 15.08842066106926,6917.874,95.437,540.651,538.827,0.0
53145.0,STARLINK-4106,PAYLOAD,2024-06-23 22:01:26,15.08842903,0.0001298,53.2176,94.342,97.0091,263.1049,2.6444e-05,1.33e-06,0.0,0 STARLINK-4106,1 53145U 22083P   24175.91767009  .00000133  00000-0  26444-4 0  9992,2 53145  53.2176  94.3420 0001298  97.0091 263.1049 15.08842903107050,6917.872,95.437,540.634,538.839,0.0
53145.0,STARLINK-4106,PAYLOAD,2024-06-24 04:22:58,15.08845488,0.0001282,53.2171,93.1514,97.5299,262.5838,5.2908e-05,5.54e-06,0.0,0 STARLINK-4106,1 53145U 22083P   24176.18262666  .00000554  00000-0  52908-4 0  9992,2 53145  53.2171  93.1514 0001282  97.5299 262.5838 15.08845488107728,6917.864,95.437,540.615,538.842,0.0
53145.0,STARLINK-4106,PAYLOAD,2024-06-24 21:52:14,15.08837894,0.0001406,53.2179,89.8821,97.742,262.3732,-4.8742e-06,-3.65e-06,0.0,0 STARLINK-4106,1 53145U 22083P   24176.91127329 -.00000365  00000-0 -48742-5 0  9993,2 53145  53.2179  89.8821 0001406  97.7420 262.3732 15.08837894107201,6917.887,95.438,540.724,538.779,0.0
53145.0,STARLINK-4106,PAYLOAD,2024-06-24 23:27:37,15.08837491,0.0001434,53.2183,89.5847,104.2544,255.8607,-9.6687e-06,-4.42e-06,0.0,0 STARLINK-4106,1 53145U 22083P   24176.97751342 -.00000442  00000-0 -96687-5 0  9994,2 53145  53.2183  89.5847 0001434 104.2544 255.8607 15.08837491107844,6917.888,95.438,540.745,538.761,0.0
53145.0,STARLINK-4106,PAYLOAD,2024-06-25 21:43:01,15.08838058,0.0001406,53.2175,85.4181,109.7538,250.3606,-1.7723e-05,-5.7e-06,0.0,0 STARLINK-4106,1 53145U 22083P   24177.90487388 -.00000570  00000-0 -17723-4 0  9999,2 53145  53.2175  85.4181 0001406 109.7538 250.3606 15.08838058107358,6917.886,95.438,540.724,538.779,0.0
53145.0,STARLINK-4106,PAYLOAD,2024-06-26 00:53:47,15.08840088,0.0001338,53.2175,84.8237,102.655,257.4592,-1.2289e-06,-3.07e-06,0.0,0 STARLINK-4106,1 53145U 22083P   24178.03735241 -.00000307  00000-0 -12289-5 0  9999,2 53145  53.2175  84.8237 0001338 102.6550 257.4592 15.08840088108004,6917.88,95.438,540.671,538.82,0.0
53145.0,STARLINK-4106,PAYLOAD,2024-06-26 23:09:11,15.08832979,0.0001393,53.2183,80.6654,108.098,252.0164,2.122e-05,5e-07,0.0,0 STARLINK-4106,1 53145U 22083P   24178.96471876  .00000050  00000-0  21220-4 0  9999,2 53145  53.2183  80.6654 0001393 108.0980 252.0164 15.08832979108149,6917.902,95.438,540.731,538.803,0.0
53145.0,STARLINK-4106,PAYLOAD,2024-06-27 21:24:35,15.08834765,0.0001933,53.2179,76.5044,95.2037,264.9176,-3.8156e-05,-8.95e-06,0.0,0 STARLINK-4106,1 53145U 22083P   24179.89208244 -.00000895  00000-0 -38156-4 0  9994,2 53145  53.2179  76.5044 0001933  95.2037 264.9176 15.08834765107656,6917.896,95.438,541.099,538.424,0.0
53145.0,STARLINK-4106,PAYLOAD,2024-06-28 00:35:21,15.08840494,0.0001214,53.2171,75.908,102.5968,257.516,4.3901e-05,4.11e-06,0.0,0 STARLINK-4106,1 53145U 22083P   24180.02455806  .00000411  00000-0  43901-4 0  9995,2 53145  53.2171  75.9080 0001214 102.5968 257.5160 15.08840494108308,6917.879,95.438,540.584,538.904,0.0
53145.0,STARLINK-4106,PAYLOAD,2024-06-28 10:07:39,15.08849254,0.0001279,53.2172,74.1222,78.2626,281.8509,0.00013879,1.922e-05,0.0,0 STARLINK-4106,1 53145U 22083P   24180.42198892  .00001922  00000-0  13879-3 0  9996,2 53145  53.2172  74.1222 0001279  78.2626 281.8509 15.08849254108365,6917.852,95.437,540.602,538.832,0.0
53145.0,STARLINK-4106,PAYLOAD,2024-06-28 21:15:22,15.08847489,0.0001676,53.2168,72.0382,76.1238,283.994,4.3969e-05,4.12e-06,0.0,0 STARLINK-4106,1 53145U 22083P   24180.88567374  .00000412  00000-0  43969-4 0  9998,2 53145  53.2168  72.0382 0001676  76.1238 283.9940 15.08847489108439,6917.857,95.437,540.882,538.563,0.0
53145.0,STARLINK-4106,PAYLOAD,2024-06-28 22:50:45,15.08845546,0.0001286,53.2166,71.742,76.5884,283.5252,2.8952e-05,1.73e-06,0.0,0 STARLINK-4106,1 53145U 22083P   24180.95191433  .00000173  00000-0  28952-4 0  9994,2 53145  53.2166  71.7420 0001286  76.5884 283.5252 15.08845546107819,6917.863,95.437,540.618,538.839,0.0
53145.0,STARLINK-4106,PAYLOAD,2024-06-29 00:26:07,15.08858769,0.0001194,53.2177,71.4457,92.7832,267.3297,0.00014399,2.006e-05,0.0,0 STARLINK-4106,1 53145U 22083P   24181.01814156  .00002006  00000-0  14399-3 0  9992,2 53145  53.2177  71.4457 0001194  92.7832 267.3297 15.08858769108450,6917.823,95.436,540.514,538.862,0.0
53145.0,STARLINK-4106,PAYLOAD,2024-06-29 16:20:00,15.08832373,0.0001213,53.2168,68.472,106.9589,253.1536,8.3708e-05,1.044e-05,0.0,0 STARLINK-4106,1 53145U 22083P   24181.68055879  .00001044  00000-0  83708-4 0  9996,2 53145  53.2168  68.4720 0001213 106.9589 253.1536 15.08832373108551,6917.904,95.438,540.608,538.93,0.0
53145.0,STARLINK-4106,PAYLOAD,2024-06-29 22:41:33,15.08835248,0.0001274,53.2171,67.2769,136.5647,223.5446,-5.1333e-05,-1.105e-05,0.0,0 STARLINK-4106,1 53145U 22083P   24181.94552240 -.00001105  00000-0 -51333-4 0  9998,2 53145  53.2171  67.2769 0001274 136.5647 223.5446 15.08835248107965,6917.895,95.438,540.641,538.879,0.0
53145.0,STARLINK-4106,PAYLOAD,2024-06-30 20:56:57,15.0883688,0.0001159,53.2179,63.1149,115.5629,244.5483,-1.5907e-05,-5.41e-06,0.0,0 STARLINK-4106,1 53145U 22083P   24182.87288209 -.00000541  00000-0 -15907-4 0  9992,2 53145  53.2179  63.1149 0001159 115.5629 244.5483 15.08836880108732,6917.89,95.438,540.557,538.953,0.0
53145.0,STARLINK-4106,PAYLOAD,2024-06-30 22:32:20,15.08836245,0.0001168,53.219,62.8183,107.8246,252.2874,4.0641e-06,-2.23e-06,0.0,0 STARLINK-4106,1 53145U 22083P   24182.93912262 -.00000223  00000-0  40641-5 0  9992,2 53145  53.2190  62.8183 0001168 107.8246 252.2874 15.08836245108115,6917.892,95.438,540.565,538.949,0.0
53145.0,STARLINK-4106,PAYLOAD,2024-07-01 22:23:07,15.08831424,9.16e-05,53.2178,58.3637,92.1022,268.0076,0.00012719,1.737e-05,0.0,0 STARLINK-4106,1 53145U 22083P   24183.93272307  .00001737  00000-0  12719-3 0  9995,2 53145  53.2178  58.3637 0000916  92.1022 268.0076 15.08831424108262,6917.907,95.438,540.405,539.138,0.0
53145.0,STARLINK-4106,PAYLOAD,2024-07-02 01:33:53,15.08833164,8.93e-05,53.2174,57.7681,93.0357,267.0737,0.00013103,1.798e-05,0.0,0 STARLINK-4106,1 53145U 22083P   24184.06520218  .00001798  00000-0  13103-3 0  9992,2 53145  53.2174  57.7681 0000893  93.0357 267.0737 15.08833164108913,6917.901,95.438,540.384,539.149,0.0
53145.0,STARLINK-4106,PAYLOAD,2024-07-02 19:03:08,15.08815407,0.0001195,53.2174,54.4956,105.9332,254.1791,0.00021494,3.132e-05,0.0,0 STARLINK-4106,1 53145U 22083P   24184.79384919  .00003132  00000-0  21494-3 0  9994,2 53145  53.2174  54.4956 0001195 105.9332 254.1791 15.08815407109024,6917.956,95.439,540.647,538.994,0.0
